*******************************************************************************
Ephemeris / WWW_USER Mon Mar 24 08:11:05 2025 Pasadena, USA      / Horizons    
*******************************************************************************
Target body name: (2018 VC)                       {source: JPL#21}
Center body name: Earth (399)                     {source: DE441}
Center-site name: Mauna Kea
*******************************************************************************
Start time      : A.D. 2018-Nov-23 03:51:00.0000 UT      
Stop  time      : A.D. 2018-Nov-23 16:25:00.0000 UT      
Step-size       : 1 minutes
*******************************************************************************
Target pole/equ : undefined
Target radii    : undefined                                                    
Center geodetic : 204.5278, 19.8260847, 4.21024   {E-lon(deg),Lat(deg),Alt(km)}
Center cylindric: 204.5278, 6006.35451, 2151.0229 {E-lon(deg),Dxy(km),Dz(km)}
Center pole/equ : ITRF93                          {East-longitude positive}
Center radii    : 6378.137, 6378.137, 6356.752 km {Equator_a, b, pole_c}       
Target primary  : Sun
Vis. interferer : MOON (R_eq= 1737.400) km        {source: DE441}
Rel. light bend : Sun                             {source: DE441}
Rel. lght bnd GM: 1.3271E+11 km^3/s^2                                          
Small-body perts: Yes                             {source: SB441-N16}
Atmos refraction: NO (AIRLESS)
RA format       : HMS
Time format     : CAL 
Calendar mode   : Mixed Julian/Gregorian
RTS-only print  : NO       
EOP file        : eop.250321.p250617                                           
EOP coverage    : DATA-BASED 1962-JAN-20 TO 2025-MAR-21. PREDICTS-> 2025-JUN-16
Units conversion: 1 au= 149597870.700 km, c= 299792.458 km/s, 1 day= 86400.0 s 
Table cut-offs 1: Elevation (-90.0deg=NO ),Airmass (>38.000=NO), Daylight (YES)
Table cut-offs 2: Solar elongation (  0.0,180.0=NO ),Local Hour Angle( 0.0=NO )
Table cut-offs 3: RA/DEC angular rate (     0.0=NO )                           
*******************************************************************************
Initial IAU76/J2000 heliocentric ecliptic osculating elements (au, days, deg.):
  EPOCH=  2458962.5 ! 2020-Apr-23.00 (TDB)         Residual RMS= .087367       
   EC= .1691367762722357   QR= .9358500167919792   TP= 2458809.0997793972      
   OM= 36.58853997425776   W=  304.3228784920618   IN= 3.701146998496158       
  Equivalent ICRF heliocentric cartesian coordinates (au, au/d):
   X=-6.479543737333916E-01  Y= 9.538692942598190E-01  Z= 5.016232001756915E-01
  VX=-1.316843360643849E-02 VY=-5.467047892625660E-03 VZ=-2.149198049185293E-03
Asteroid physical parameters (km, seconds, rotational period in hours):        
   GM= n.a.                RAD= n.a.               ROTPER= n.a.                
   H= 26.34                G= .150                 B-V= n.a.                   
                           ALBEDO= n.a.            STYP= n.a.                  
*******************************************************************************
 Date__(UT)__HR:MN     R.A._________(ICRF)_________DEC
******************************************************
$$SOE
 2018-Nov-23 03:51 Cm  02 35 42.580000 +36 32 15.10826
 2018-Nov-23 03:52 Cm  02 35 42.600957 +36 32 15.33801
 2018-Nov-23 03:53 Cm  02 35 42.621752 +36 32 15.56740
 2018-Nov-23 03:54 Cm  02 35 42.642384 +36 32 15.79643
 2018-Nov-23 03:55 Cm  02 35 42.662855 +36 32 16.02510
 2018-Nov-23 03:56 Cm  02 35 42.683165 +36 32 16.25339
 2018-Nov-23 03:57 Cm  02 35 42.703313 +36 32 16.48131
 2018-Nov-23 03:58 Cm  02 35 42.723300 +36 32 16.70885
 2018-Nov-23 03:59 Cm  02 35 42.743126 +36 32 16.93600
 2018-Nov-23 04:00 Cm  02 35 42.762792 +36 32 17.16276
 2018-Nov-23 04:01 Cm  02 35 42.782297 +36 32 17.38912
 2018-Nov-23 04:02 Cm  02 35 42.801642 +36 32 17.61508
 2018-Nov-23 04:03 Cm  02 35 42.820827 +36 32 17.84063
 2018-Nov-23 04:04 Cm  02 35 42.839852 +36 32 18.06578
 2018-Nov-23 04:05 Nm  02 35 42.858718 +36 32 18.29050
 2018-Nov-23 04:06 Nm  02 35 42.877425 +36 32 18.51481
 2018-Nov-23 04:07 Nm  02 35 42.895973 +36 32 18.73869
 2018-Nov-23 04:08 Nm  02 35 42.914362 +36 32 18.96213
 2018-Nov-23 04:09 Nm  02 35 42.932592 +36 32 19.18514
 2018-Nov-23 04:10 Nm  02 35 42.950665 +36 32 19.40771
 2018-Nov-23 04:11 Nm  02 35 42.968579 +36 32 19.62984
 2018-Nov-23 04:12 Nm  02 35 42.986336 +36 32 19.85151
 2018-Nov-23 04:13 Nm  02 35 43.003936 +36 32 20.07272
 2018-Nov-23 04:14 Nm  02 35 43.021378 +36 32 20.29348
 2018-Nov-23 04:15 Nm  02 35 43.038664 +36 32 20.51377
 2018-Nov-23 04:16 Nm  02 35 43.055793 +36 32 20.73358
 2018-Nov-23 04:17 Nm  02 35 43.072765 +36 32 20.95292
 2018-Nov-23 04:18 Nm  02 35 43.089582 +36 32 21.17178
 2018-Nov-23 04:19 Nm  02 35 43.106243 +36 32 21.39016
 2018-Nov-23 04:20 Nm  02 35 43.122749 +36 32 21.60804
 2018-Nov-23 04:21 Nm  02 35 43.139099 +36 32 21.82543
 2018-Nov-23 04:22 Nm  02 35 43.155295 +36 32 22.04232
 2018-Nov-23 04:23 Nm  02 35 43.171336 +36 32 22.25870
 2018-Nov-23 04:24 Nm  02 35 43.187223 +36 32 22.47458
 2018-Nov-23 04:25 Nm  02 35 43.202956 +36 32 22.68993
 2018-Nov-23 04:26 Nm  02 35 43.218536 +36 32 22.90477
 2018-Nov-23 04:27 Nm  02 35 43.233962 +36 32 23.11909
 2018-Nov-23 04:28 Nm  02 35 43.249235 +36 32 23.33287
 2018-Nov-23 04:29 Nm  02 35 43.264356 +36 32 23.54612
 2018-Nov-23 04:30 Nm  02 35 43.279324 +36 32 23.75884
 2018-Nov-23 04:31 Nm  02 35 43.294140 +36 32 23.97101
 2018-Nov-23 04:32 Am  02 35 43.308805 +36 32 24.18263
 2018-Nov-23 04:33 Am  02 35 43.323318 +36 32 24.39369
 2018-Nov-23 04:34 Am  02 35 43.337680 +36 32 24.60420
 2018-Nov-23 04:35 Am  02 35 43.351891 +36 32 24.81415
 2018-Nov-23 04:36 Am  02 35 43.365953 +36 32 25.02353
 2018-Nov-23 04:37 Am  02 35 43.379864 +36 32 25.23234
 2018-Nov-23 04:38 Am  02 35 43.393625 +36 32 25.44057
 2018-Nov-23 04:39 Am  02 35 43.407237 +36 32 25.64822
 2018-Nov-23 04:40 Am  02 35 43.420700 +36 32 25.85528
 2018-Nov-23 04:41 Am  02 35 43.434014 +36 32 26.06176
 2018-Nov-23 04:42 Am  02 35 43.447180 +36 32 26.26763
 2018-Nov-23 04:43 Am  02 35 43.460199 +36 32 26.47291
 2018-Nov-23 04:44 Am  02 35 43.473069 +36 32 26.67759
 2018-Nov-23 04:45 Am  02 35 43.485793 +36 32 26.88165
 2018-Nov-23 04:46 Am  02 35 43.498369 +36 32 27.08510
 2018-Nov-23 04:47 Am  02 35 43.510799 +36 32 27.28793
 2018-Nov-23 04:48 Am  02 35 43.523083 +36 32 27.49014
 2018-Nov-23 04:49 Am  02 35 43.535222 +36 32 27.69172
 2018-Nov-23 04:50 Am  02 35 43.547215 +36 32 27.89267
 2018-Nov-23 04:51 Am  02 35 43.559063 +36 32 28.09299
 2018-Nov-23 04:52 Am  02 35 43.570766 +36 32 28.29266
 2018-Nov-23 04:53 Am  02 35 43.582325 +36 32 28.49168
 2018-Nov-23 04:54 Am  02 35 43.593740 +36 32 28.69006
 2018-Nov-23 04:55 Am  02 35 43.605012 +36 32 28.88778
 2018-Nov-23 04:56 Am  02 35 43.616141 +36 32 29.08484
 2018-Nov-23 04:57 Am  02 35 43.627128 +36 32 29.28124
 2018-Nov-23 04:58 Am  02 35 43.637972 +36 32 29.47697
 2018-Nov-23 04:59  m  02 35 43.648674 +36 32 29.67203
 2018-Nov-23 05:00  m  02 35 43.659235 +36 32 29.86641
 2018-Nov-23 05:01  m  02 35 43.669654 +36 32 30.06011
 2018-Nov-23 05:02  m  02 35 43.679934 +36 32 30.25312
 2018-Nov-23 05:03  m  02 35 43.690073 +36 32 30.44544
 2018-Nov-23 05:04  m  02 35 43.700072 +36 32 30.63707
 2018-Nov-23 05:05  m  02 35 43.709931 +36 32 30.82800
 2018-Nov-23 05:06  m  02 35 43.719652 +36 32 31.01823
 2018-Nov-23 05:07  m  02 35 43.729235 +36 32 31.20775
 2018-Nov-23 05:08  m  02 35 43.738679 +36 32 31.39655
 2018-Nov-23 05:09  m  02 35 43.747985 +36 32 31.58464
 2018-Nov-23 05:10  m  02 35 43.757155 +36 32 31.77201
 2018-Nov-23 05:11  m  02 35 43.766187 +36 32 31.95866
 2018-Nov-23 05:12  m  02 35 43.775083 +36 32 32.14457
 2018-Nov-23 05:13  m  02 35 43.783843 +36 32 32.32975
 2018-Nov-23 05:14  m  02 35 43.792468 +36 32 32.51420
 2018-Nov-23 05:15  m  02 35 43.800958 +36 32 32.69790
 2018-Nov-23 05:16  m  02 35 43.809313 +36 32 32.88086
 2018-Nov-23 05:17  m  02 35 43.817533 +36 32 33.06306
 2018-Nov-23 05:18  m  02 35 43.825620 +36 32 33.24452
 2018-Nov-23 05:19  m  02 35 43.833574 +36 32 33.42521
 2018-Nov-23 05:20  m  02 35 43.841395 +36 32 33.60514
 2018-Nov-23 05:21  m  02 35 43.849084 +36 32 33.78430
 2018-Nov-23 05:22  m  02 35 43.856641 +36 32 33.96269
 2018-Nov-23 05:23  m  02 35 43.864066 +36 32 34.14031
 2018-Nov-23 05:24  m  02 35 43.871361 +36 32 34.31715
 2018-Nov-23 05:25  m  02 35 43.878525 +36 32 34.49320
 2018-Nov-23 05:26  m  02 35 43.885559 +36 32 34.66847
 2018-Nov-23 05:27  m  02 35 43.892463 +36 32 34.84294
 2018-Nov-23 05:28  m  02 35 43.899238 +36 32 35.01662
 2018-Nov-23 05:29  m  02 35 43.905885 +36 32 35.18950
 2018-Nov-23 05:30  m  02 35 43.912404 +36 32 35.36158
 2018-Nov-23 05:31  m  02 35 43.918795 +36 32 35.53285
 2018-Nov-23 05:32  m  02 35 43.925059 +36 32 35.70331
 2018-Nov-23 05:33  m  02 35 43.931196 +36 32 35.87295
 2018-Nov-23 05:34  m  02 35 43.937207 +36 32 36.04177
 2018-Nov-23 05:35  m  02 35 43.943093 +36 32 36.20977
 2018-Nov-23 05:36  m  02 35 43.948853 +36 32 36.37694
 2018-Nov-23 05:37  m  02 35 43.954489 +36 32 36.54328
 2018-Nov-23 05:38  m  02 35 43.960000 +36 32 36.70878
 2018-Nov-23 05:39  m  02 35 43.965388 +36 32 36.87345
 2018-Nov-23 05:40  m  02 35 43.970652 +36 32 37.03727
 2018-Nov-23 05:41  m  02 35 43.975794 +36 32 37.20025
 2018-Nov-23 05:42  m  02 35 43.980814 +36 32 37.36237
 2018-Nov-23 05:43  m  02 35 43.985712 +36 32 37.52364
 2018-Nov-23 05:44  m  02 35 43.990490 +36 32 37.68406
 2018-Nov-23 05:45  m  02 35 43.995146 +36 32 37.84361
 2018-Nov-23 05:46  m  02 35 43.999682 +36 32 38.00229
 2018-Nov-23 05:47  m  02 35 44.004099 +36 32 38.16011
 2018-Nov-23 05:48  m  02 35 44.008397 +36 32 38.31705
 2018-Nov-23 05:49  m  02 35 44.012576 +36 32 38.47312
 2018-Nov-23 05:50  m  02 35 44.016638 +36 32 38.62830
 2018-Nov-23 05:51  m  02 35 44.020581 +36 32 38.78260
 2018-Nov-23 05:52  m  02 35 44.024408 +36 32 38.93602
 2018-Nov-23 05:53  m  02 35 44.028119 +36 32 39.08854
